LANDSAT 9               
1 49260U 21088A   24055.17985768  .00000595  00000+0  14209-3 0  9994
2 49260  98.1996 126.6722 0001331 101.4159 258.7189 14.57095304128087
